GPS BIIA-23 (PRN 18)    
1 22877U 93068A   18230.24468443 -.00000062  00000-0  00000+0 0  9999
2 22877  54.4681  80.9564 0146799  76.3646 132.2625  2.00568112181798
GPS BIIR-2  (PRN 13)    
1 24876U 97035A   18230.34887117  .00000057  00000-0  00000+0 0  9995
2 24876  55.4849 210.3285 0030863  85.3344 275.0066  2.00564479154397
GPS BIIR-3  (PRN 11)    
1 25933U 99055A   18230.27230676 -.00000070  00000-0  00000+0 0  9994
2 25933  51.9313  58.9852 0168023 103.3214 128.0212  2.00565833138209
GPS BIIR-4  (PRN 20)    
1 26360U 00025A   18230.29377237 -.00000051  00000-0  00000+0 0  9994
2 26360  53.2182 137.0766 0039464 120.5429 173.0738  2.00563191133901
GPS BIIR-5  (PRN 28)    
1 26407U 00040A   18230.54146889 -.00000097  00000-0  00000+0 0  9998
2 26407  56.4454 328.4583 0197532 273.0347 177.3947  2.00562695132587
GPS BIIR-6  (PRN 14)    
1 26605U 00071A   18230.36310549  .00000054  00000-0  00000+0 0  9990
2 26605  55.0582 207.8951 0102900 249.1016 339.1145  2.00570073130186
GPS BIIR-8  (PRN 16)    
1 27663U 03005A   18230.31456396 -.00000097  00000-0  00000+0 0  9999
2 27663  56.5092 328.2276 0098576  28.8750  17.8904  2.00563224113949
GPS BIIR-9  (PRN 21)    
1 27704U 03010A   18230.22580145 -.00000062  00000-0  00000+0 0  9993
2 27704  54.1394  80.5235 0245400 272.0337  30.2494  2.00566509112740
GPS BIIR-10 (PRN 22)    
1 28129U 03058A   18230.04537053 -.00000045  00000-0  00000+0 0  9998
2 28129  53.0313 139.9300 0074001 274.2604  84.9202  2.00555428107432
GPS BIIR-11 (PRN 19)    
1 28190U 04009A   18230.10525354 -.00000073  00000-0  00000+0 0  9992
2 28190  56.1957  29.0641 0095586  71.7396 330.0848  2.00558412105619
GPS BIIR-12 (PRN 23)    
1 28361U 04023A   18230.49846392  .00000046  00000-0  00000+0 0  9997
2 28361  54.0607 202.5672 0128316 227.0086  15.1557  2.00554521103703
GPS BIIR-13 (PRN 02)    
1 28474U 04045A   18230.09357778 -.00000062  00000-0  00000+0 0  9996
2 28474  54.5061  80.1666 0181851 254.8616  53.9596  2.00549429101061
GPS BIIRM-1 (PRN 17)    
1 28874U 05038A   18230.01171253 -.00000075  00000-0  00000+0 0  9991
2 28874  56.3340  26.3855 0126973 258.3111 101.1632  2.00572680 94467
GPS BIIRM-2 (PRN 31)    
1 29486U 06042A   18230.30823997  .00000015  00000-0  00000+0 0  9991
2 29486  55.1468 265.1786 0088533 351.5910 144.6715  2.00558189 87186
GPS BIIRM-3 (PRN 12)    
1 29601U 06052A   18229.06173652 -.00000091  00000-0  00000+0 0  9993
2 29601  56.4864 327.1931 0068454  57.9107 302.7859  2.00557987 86073
GPS BIIRM-4 (PRN 15)    
1 32260U 07047A   18229.88714238  .00000041  00000-0  00000+0 0  9998
2 32260  53.1849 198.5588 0103740  38.9620 321.7577  2.00548643 79473
GPS BIIRM-5 (PRN 29)    
1 32384U 07062A   18230.44726375 -.00000074  00000-0  00000+0 0  9998
2 32384  56.4097  26.9825 0006006  85.6602  96.1278  2.00567287 78212
GPS BIIRM-6 (PRN 07)    
1 32711U 08012A   18230.29226945  .00000015  00000-0  00000+0 0  9993
2 32711  54.8817 264.4427 0121587 217.5586 141.6418  2.00566704 76396
GPS BIIRM-8 (PRN 05)    
1 35752U 09043A   18230.15964684 -.00000043  00000-0  00000+0 0  9992
2 35752  54.3333 142.1980 0054337  35.8041 256.0547  2.00552599 65976
GPS BIIF-1  (PRN 25)    
1 36585U 10022A   18230.48306906 -.00000094  00000-0  00000+0 0  9995
2 36585  55.7739 323.6548 0072718  48.6731 222.4991  2.00571842 60239
GPS BIIF-2  (PRN 01)    
1 37753U 11036A   18230.28701650 -.00000059  00000-0  00000+0 0  9993
2 37753  55.7047  83.7598 0079274  37.6424 177.4334  2.00564695 51901
GPS BIIF-3  (PRN 24)    
1 38833U 12053A   18229.97386477  .00000017  00000-0  00000+0 0  9996
2 38833  53.9130 260.9520 0069954  28.9480 331.4911  2.00567941 42974
GPS BIIF-4  (PRN 27)    
1 39166U 13023A   18230.33240561 -.00000078  00000-0  00000+0 0  9997
2 39166  56.0289  23.2490 0059227  24.2007 336.0875  2.00562040 38515
GPS BIIF-5  (PRN 30)    
1 39533U 14008A   18229.83388426  .00000005  00000-0  00000+0 0  9994
2 39533  54.0550 266.3164 0036582 192.0273 167.9417  2.00560114 32863
GPS BIIF-6  (PRN 06)    
1 39741U 14026A   18229.61262371 -.00000060  00000-0  00000+0 0  9993
2 39741  55.6870  83.3099 0011963 293.2665  66.6771  2.00562749 31149
GPS BIIF-7  (PRN 09)    
1 40105U 14045A   18230.19999483  .00000048  00000-0  00000+0 0  9991
2 40105  54.5869 202.7174 0007148 106.2563 253.8039  2.00576189 29600
GPS BIIF-8  (PRN 03)    
1 40294U 14068A   18230.07689802 -.00000039  00000-0  00000+0 0  9994
2 40294  55.0846 143.5166 0015376  25.1293 334.9664  2.00560640 27826
GPS BIIF-9  (PRN 26)    
1 40534U 15013A   18229.71253016 -.00000093  00000-0  00000-0 0  9996
2 40534  54.7132 322.3431 0028198   0.2401 359.8005  2.00560051 24457
GPS BIIF-10  (PRN 08)   
1 40730U 15033A   18230.37199574 -.00000080  00000-0  00000+0 0  9993
2 40730  55.5582  22.7251 0035665 333.6443  26.1859  2.00571157 22650
GPS BIIF-11  (PRN 10)   
1 41019U 15062A   18229.42645651 -.00000032  00000-0  00000-0 0  9990
2 41019  55.0889 143.3473 0037877 203.9972 155.8485  2.00564446 20459
GPS BIIF-12  (PRN 32)   
1 41328U 16007A   18230.01309530  .00000049  00000-0  00000+0 0  9999
2 41328  54.8363 203.0321 0024404 219.6066 140.1967  2.00560843 18526
